{"type": "FeatureCollection", "features": [ {"type": "Feature", "properties": {"norad_id": 66563, "name": "STARLINK-35437", "group": "last-30-days", "lat": -20.035971997581633, "lon": 51.54924477251399, "alt_km": 400.12870561871296, "timestamp": "2025-12-20T16:47:35.021542+00:00", "meta": {"OBJECT_NAME": "STARLINK-35437", "OBJECT_ID": "2025-268G", "EPOCH": "2025-12-20T12:00:02.000160", "MEAN_MOTION": 15.56165704, "ECCENTRICITY": 0.0001798, "INCLINATION": 43.0003, "RA_OF_ASC_NODE": 75.766, "ARG_OF_PERICENTER": 255.0547, "MEAN_ANOMALY": 34.7655, "EPHEMERIS_TYPE": 0, "CLASSIFICATION_TYPE": "U", "NORAD_CAT_ID": 66563, "ELEMENT_SET_NO": 999, "REV_AT_EPOCH": 591, "BSTAR": 0.0030326, "MEAN_MOTION_DOT": 0.00223881, "MEAN_MOTION_DDOT": 0}, "tle": {"line1": "1 66563U 25268G   25354.50002315  .00223881  00000+0  30326-2 0  9993", "line2": "2 66563  43.0003  75.7660 0001798 255.0547  34.7655 15.56165704  5917"}}, "geometry": {"type": "Point", "coordinates": [51.54924477251399, -20.035971997581633]}}, {"type": "Feature", "properties": {"norad_id": 66564, "name": "STARLINK-35358", "group": "last-30-days", "lat": -18.8266879846466, "lon": 53.121528093934614, "alt_km": 400.0867456915839, "timestamp": "2025-12-20T16:47:35.021556+00:00", "meta": {"OBJECT_NAME": "STARLINK-35358", "OBJECT_ID": "2025-268H", "EPOCH": "2025-12-20T12:00:02.000160", "MEAN_MOTION": 15.56161925, "ECCENTRICITY": 0.0001802, "INCLINATION": 43.0001, "RA_OF_ASC_NODE": 75.7617, "ARG_OF_PERICENTER": 254.1203, "MEAN_ANOMALY": 37.6195, "EPHEMERIS_TYPE": 0, "CLASSIFICATION_TYPE": "U", "NORAD_CAT_ID": 66564, "ELEMENT_SET_NO": 999, "REV_AT_EPOCH": 586, "BSTAR": 0.0030852, "MEAN_MOTION_DOT": 0.00227853, "MEAN_MOTION_DDOT": 0}, "tle": {"line1": "1 66564U 25268H   25354.50002315  .00227853  00000+0  30852-2 0  9991", "line2": "2 66564  43.0001  75.7617 0001802 254.1203  37.6195 15.56161925  5869"}}, "geometry": {"type": "Point", "coordinates": [53.121528093934614, -18.8266879846466]}}, {"type": "Feature", "properties": {"norad_id": 66565, "name": "STARLINK-35893", "group": "last-30-days", "lat": -17.60530111754878, "lon": 54.669292445614445, "alt_km": 400.1204998118983, "timestamp": "2025-12-20T16:47:35.021567+00:00", "meta": {"OBJECT_NAME": "STARLINK-35893", "OBJECT_ID": "2025-268J", "EPOCH": "2025-12-20T12:00:02.000160", "MEAN_MOTION": 15.56164855, "ECCENTRICITY": 0.0001804, "INCLINATION": 43.0002, "RA_OF_ASC_NODE": 75.7565, "ARG_OF_PERICENTER": 248.7512, "MEAN_ANOMALY": 44.9026, "EPHEMERIS_TYPE": 0, "CLASSIFICATION_TYPE": "U", "NORAD_CAT_ID": 66565, "ELEMENT_SET_NO": 999, "REV_AT_EPOCH": 591, "BSTAR": 0.0030592, "MEAN_MOTION_DOT": 0.002259, "MEAN_MOTION_DDOT": 0}, "tle": {"line1": "1 66565U 25268J   25354.50002315  .00225900  00000+0  30592-2 0  9994", "line2": "2 66565  43.0002  75.7565 0001804 248.7512  44.9026 15.56164855  5912"}}, "geometry": {"type": "Point", "coordinates": [54.669292445614445, -17.60530111754878]}}, {"type": "Feature", "properties": {"norad_id": 66566, "name": "STARLINK-35871", "group": "last-30-days", "lat": -16.384725191217747, "lon": 56.18259985155897, "alt_km": 400.0991417440764, "timestamp": "2025-12-20T16:47:35.021577+00:00", "meta": {"OBJECT_NAME": "STARLINK-35871", "OBJECT_ID": "2025-268K", "EPOCH": "2025-12-20T12:00:02.000160", "MEAN_MOTION": 15.56218585, "ECCENTRICITY": 0.0001424, "INCLINATION": 43.0003, "RA_OF_ASC_NODE": 75.7536, "ARG_OF_PERICENTER": 240.6808, "MEAN_ANOMALY": 54.8418, "EPHEMERIS_TYPE": 0, "CLASSIFICATION_TYPE": "U", "NORAD_CAT_ID": 66566, "ELEMENT_SET_NO": 999, "REV_AT_EPOCH": 591, "BSTAR": 0.0023903, "MEAN_MOTION_DOT": 0.00175657, "MEAN_MOTION_DDOT": 0}, "tle": {"line1": "1 66566U 25268K   25354.50002315  .00175657  00000+0  23903-2 0  9996", "line2": "2 66566  43.0003  75.7536 0001424 240.6808  54.8418 15.56218585  5914"}}, "geometry": {"type": "Point", "coordinates": [56.18259985155897, -16.384725191217747]}}, {"type": "Feature", "properties": {"norad_id": 66567, "name": "STARLINK-35825", "group": "last-30-days", "lat": -15.139224599155845, "lon": 57.69281537248143, "alt_km": 399.84837327208515, "timestamp": "2025-12-20T16:47:35.021588+00:00", "meta": {"OBJECT_NAME": "STARLINK-35825", "OBJECT_ID": "2025-268L", "EPOCH": "2025-12-20T12:00:02.000160", "MEAN_MOTION": 15.56216395, "ECCENTRICITY": 0.0001399, "INCLINATION": 43.0012, "RA_OF_ASC_NODE": 75.7489, "ARG_OF_PERICENTER": 250.925, "MEAN_ANOMALY": 46.5179, "EPHEMERIS_TYPE": 0, "CLASSIFICATION_TYPE": "U", "NORAD_CAT_ID": 66567, "ELEMENT_SET_NO": 999, "REV_AT_EPOCH": 591, "BSTAR": 0.002404, "MEAN_MOTION_DOT": 0.00176668, "MEAN_MOTION_DDOT": 0}, "tle": {"line1": "1 66567U 25268L   25354.50002315  .00176668  00000+0  24040-2 0  9993", "line2": "2 66567  43.0012  75.7489 0001399 250.9250  46.5179 15.56216395  5917"}}, "geometry": {"type": "Point", "coordinates": [57.69281537248143, -15.139224599155845]}}, {"type": "Feature", "properties": {"norad_id": 66568, "name": "STARLINK-35803", "group": "last-30-days", "lat": -21.32631572882999, "lon": 49.8220500619443, "alt_km": 415.39962138333885, "timestamp": "2025-12-20T16:47:35.021599+00:00", "meta": {"OBJECT_NAME": "STARLINK-35803", "OBJECT_ID": "2025-268M", "EPOCH": "2025-12-20T12:17:43.044000", "MEAN_MOTION": 15.51101192, "ECCENTRICITY": 3.89e-05, "INCLINATION": 42.9989, "RA_OF_ASC_NODE": 75.6898, "ARG_OF_PERICENTER": 57.0977, "MEAN_ANOMALY": 302.992, "EPHEMERIS_TYPE": 0, "CLASSIFICATION_TYPE": "U", "NORAD_CAT_ID": 66568, "ELEMENT_SET_NO": 999, "REV_AT_EPOCH": 583, "BSTAR": 0.0026939, "MEAN_MOTION_DOT": 0.00164085, "MEAN_MOTION_DDOT": 0}, "tle": {"line1": "1 66568U 25268M   25354.51230375  .00164085  00000+0  26939-2 0  9993", "line2": "2 66568  42.9989  75.6898 0000389  57.0977 302.9920 15.51101192  5839"}}, "geometry": {"type": "Point", "coordinates": [49.8220500619443, -21.32631572882999]}}, {"type": "Feature", "properties": {"norad_id": 66569, "name": "STARLINK-35835", "group": "last-30-days", "lat": -17.902163588764495, "lon": 54.29485693134241, "alt_km": 411.48491135644144, "timestamp": "2025-12-20T16:47:35.021610+00:00", "meta": {"OBJECT_NAME": "STARLINK-35835", "OBJECT_ID": "2025-268N", "EPOCH": "2025-12-19T14:38:53.453760", "MEAN_MOTION": 15.51068809, "ECCENTRICITY": 0.000157, "INCLINATION": 43.0021, "RA_OF_ASC_NODE": 80.9616, "ARG_OF_PERICENTER": 180.5459, "MEAN_ANOMALY": 179.5399, "EPHEMERIS_TYPE": 0, "CLASSIFICATION_TYPE": "U", "NORAD_CAT_ID": 66569, "ELEMENT_SET_NO": 999, "REV_AT_EPOCH": 569, "BSTAR": 0.01158, "MEAN_MOTION_DOT": 0.0075028, "MEAN_MOTION_DDOT": 0}, "tle": {"line1": "1 66569U 25268N   25353.61034090  .00750280  00000+0  11580-1 0  9993", "line2": "2 66569  43.0021  80.9616 0001570 180.5459 179.5399 15.51068809  5695"}}, "geometry": {"type": "Point", "coordinates": [54.29485693134241, -17.902163588764495]}}, {"type": "Feature", "properties": {"norad_id": 66570, "name": "STARLINK-35834", "group": "last-30-days", "lat": -17.297408794046856, "lon": 55.05205936320593, "alt_km": 412.3151214560421, "timestamp": "2025-12-20T16:47:35.021620+00:00", "meta": {"OBJECT_NAME": "STARLINK-35834", "OBJECT_ID": "2025-268P", "EPOCH": "2025-12-19T14:38:22.069824", "MEAN_MOTION": 15.5108495, "ECCENTRICITY": 0.0001238, "INCLINATION": 43.0034, "RA_OF_ASC_NODE": 80.9577, "ARG_OF_PERICENTER": 245.0703, "MEAN_ANOMALY": 115.0029, "EPHEMERIS_TYPE": 0, "CLASSIFICATION_TYPE": "U", "NORAD_CAT_ID": 66570, "ELEMENT_SET_NO": 999, "REV_AT_EPOCH": 569, "BSTAR": 0.0072465, "MEAN_MOTION_DOT": 0.00458871, "MEAN_MOTION_DDOT": 0}, "tle": {"line1": "1 66570U 25268P   25353.60997766  .00458871  00000+0  72465-2 0  9993", "line2": "2 66570  43.0034  80.9577 0001238 245.0703 115.0029 15.51084950  5697"}}, "geometry": {"type": "Point", "coordinates": [55.05205936320593, -17.297408794046856]}}, {"type": "Feature", "properties": {"norad_id": 66571, "name": "STARLINK-35836", "group": "last-30-days", "lat": -10.06693291315532, "lon": 63.56713827835569, "alt_km": 399.50291733892664, "timestamp": "2025-12-20T16:47:35.021631+00:00", "meta": {"OBJECT_NAME": "STARLINK-35836", "OBJECT_ID": "2025-268Q", "EPOCH": "2025-12-20T12:00:02.000160", "MEAN_MOTION": 15.56127962, "ECCENTRICITY": 0.0001767, "INCLINATION": 43.0003, "RA_OF_ASC_NODE": 75.7281, "ARG_OF_PERICENTER": 259.2729, "MEAN_ANOMALY": 45.8949, "EPHEMERIS_TYPE": 0, "CLASSIFICATION_TYPE": "U", "NORAD_CAT_ID": 66571, "ELEMENT_SET_NO": 999, "REV_AT_EPOCH": 591, "BSTAR": 0.0029596, "MEAN_MOTION_DOT": 0.00218019, "MEAN_MOTION_DDOT": 0}, "tle": {"line1": "1 66571U 25268Q   25354.50002315  .00218019  00000+0  29596-2 0  9996", "line2": "2 66571  43.0003  75.7281 0001767 259.2729  45.8949 15.56127962  5912"}}, "geometry": {"type": "Point", "coordinates": [63.56713827835569, -10.06693291315532]}}, {"type": "Feature", "properties": {"norad_id": 66572, "name": "STARLINK-35870", "group": "last-30-days", "lat": -16.177449358626166, "lon": 56.429357642582175, "alt_km": 416.97327104983924, "timestamp": "2025-12-20T16:47:35.021641+00:00", "meta": {"OBJECT_NAME": "STARLINK-35870", "OBJECT_ID": "2025-268R", "EPOCH": "2025-12-19T14:37:25.234176", "MEAN_MOTION": 15.50965919, "ECCENTRICITY": 0.0004838, "INCLINATION": 42.9991, "RA_OF_ASC_NODE": 80.9528, "ARG_OF_PERICENTER": 97.5171, "MEAN_ANOMALY": 262.6239, "EPHEMERIS_TYPE": 0, "CLASSIFICATION_TYPE": "U", "NORAD_CAT_ID": 66572, "ELEMENT_SET_NO": 999, "REV_AT_EPOCH": 569, "BSTAR": 0.0015119, "MEAN_MOTION_DOT": 0.00090663, "MEAN_MOTION_DDOT": 0}, "tle": {"line1": "1 66572U 25268R   25353.60931984  .00090663  00000+0  15119-2 0  9999", "line2": "2 66572  42.9991  80.9528 0004838  97.5171 262.6239 15.50965919  5697"}}, "geometry": {"type": "Point", "coordinates": [56.429357642582175, -16.177449358626166]}}]}